[{"OBJECT_NAME":"ONEWEB-0352","OBJECT_ID":"2021-083AG","EPOCH":"2026-03-09T18:22:32.001024","MEAN_MOTION":13.13470505,"ECCENTRICITY":0.00020369,"INCLINATION":87.9033,"RA_OF_ASC_NODE":340.0129,"ARG_OF_PERICENTER":89.4703,"MEAN_ANOMALY":270.666,"EPHEMERIS_TYPE":0,"CLASSIFICATION_TYPE":"U","NORAD_CAT_ID":49216,"ELEMENT_SET_NO":999,"REV_AT_EPOCH":21797,"BSTAR":-0.00035738382,"MEAN_MOTION_DOT":-1.18e-6,"MEAN_MOTION_DDOT":0},{"OBJECT_NAME":"UNKNOWN","OBJECT_ID":"","EPOCH":"2026-03-06T15:35:58.139808","MEAN_MOTION":13.15583679,"ECCENTRICITY":0.00194869,"INCLINATION":82.5467,"RA_OF_ASC_NODE":217.4429,"ARG_OF_PERICENTER":167.5979,"MEAN_ANOMALY":192.5626,"EPHEMERIS_TYPE":0,"CLASSIFICATION_TYPE":"U","NORAD_CAT_ID":270264,"ELEMENT_SET_NO":999,"REV_AT_EPOCH":28717,"BSTAR":0.0016239036,"MEAN_MOTION_DOT":6.25e-6,"MEAN_MOTION_DDOT":0}]
